NAVSTAR 77 (USA 289)    
1 43873U 18109A   24087.34678573  .00000049  00000+0  00000+0 0  9999
2 43873  55.2633 124.2611 0028454 195.2235 183.9253  2.00552382 38793
